[{"OBJECT_NAME":"ITASAT","OBJECT_ID":"2018-099AE","EPOCH":"2026-03-09T09:05:41.837280","MEAN_MOTION":15.17669542,"ECCENTRICITY":0.00122662,"INCLINATION":97.4161,"RA_OF_ASC_NODE":121.9137,"ARG_OF_PERICENTER":347.5066,"MEAN_ANOMALY":12.5862,"EPHEMERIS_TYPE":0,"CLASSIFICATION_TYPE":"U","NORAD_CAT_ID":43786,"ELEMENT_SET_NO":999,"REV_AT_EPOCH":39776,"BSTAR":0.00041167934,"MEAN_MOTION_DOT":8.243e-5,"MEAN_MOTION_DDOT":0},{"OBJECT_NAME":"ETIHAD-SAT","OBJECT_ID":"2025-052S","EPOCH":"2026-03-09T16:03:28.707264","MEAN_MOTION":15.21246201,"ECCENTRICITY":0.00067443,"INCLINATION":97.4075,"RA_OF_ASC_NODE":322.8388,"ARG_OF_PERICENTER":120.6163,"MEAN_ANOMALY":239.5739,"EPHEMERIS_TYPE":0,"CLASSIFICATION_TYPE":"U","NORAD_CAT_ID":63226,"ELEMENT_SET_NO":999,"REV_AT_EPOCH":5470,"BSTAR":0.00038811178,"MEAN_MOTION_DOT":8.608e-5,"MEAN_MOTION_DDOT":0}]
