ITASAT                  
1 43786U 18099AE  26068.37895645  .00008243  00000+0  41168-3 0  9993
2 43786  97.4161 121.9137 0012266 347.5066  12.5862 15.17669542397762
ETIHAD-SAT              
1 63226U 25052S   26068.66908226  .00008608  00000+0  38811-3 0  9999
2 63226  97.4075 322.8388 0006744 120.6163 239.5739 15.21246201 54705
